STARLINK-1366           
1 45569U 20025AQ  26068.20531678  .00111184  00000+0  70244-3 0  9997
2 45569  53.0440  40.9129 0008507  56.1589 304.0238 15.75756697325969
STARLINK-11705 [DTC]    
1 63758U 25089H   26067.99034614  .00268841  00000+0  20262-2 0  9992
2 63758  42.9994 296.6252 0001448 319.7608  40.3152 15.70903830 49971
